GSAT0222 (PRN E33)      
1 43565U 18060B   22265.47449511 -.00000084  00000+0  00000+0 0  9991
2 43565  57.2095  18.5646 0002392 254.4247 105.5536  1.70476257 25963
GSAT0219 (PRN E36)      
1 43566U 18060C   22266.86820457 -.00000081  00000+0  00000+0 0  9995
2 43566  57.2103  18.5291 0002090 250.7079 109.2754  1.70476263 25967
GSAT0220 (PRN E13)      
1 43567U 18060D   22266.50180194 -.00000082  00000+0  00000+0 0  9995
2 43567  57.2102  18.5398 0002548 247.8363 112.1422  1.70476109 25948
BEIDOU-3 M9 (C23)       
1 43581U 18062A   22266.32175516  .00000005  00000+0  00000+0 0  9999
2 43581  54.2531 228.7343 0005887 276.4189  84.6079  1.86231883 28258
BEIDOU-3 M10 (C24)      
1 43582U 18062B   22267.25875270  .00000007  00000+0  00000+0 0  9999
2 43582  54.2519 228.6914 0005266 341.4757  19.6672  1.86232338 28278
BEIDOU-3 M11 (C25)      
1 43602U 18067A   22267.19108523  .00000006  00000+0  00000+0 0  9999
2 43602  54.3358 227.3179 0006940   2.0025 354.9553  1.86231529 27756
BEIDOU-3 M12 (C26)      
1 43603U 18067B   22266.78967226  .00000005  00000+0  00000+0 0  9996
2 43603  54.3324 227.2980 0004291 344.7335  13.4514  1.86231479 27765
BEIDOU-3 M13 (C32)      
1 43622U 18072A   22266.13825240  .00000052  00000+0  00000+0 0  9993
2 43622  55.5351 108.0726 0004700 292.3578  18.1155  1.86231781 27269
BEIDOU-3 M14 (C33)      
1 43623U 18072B   22266.89129250  .00000056  00000+0  00000+0 0  9999
2 43623  55.5381 108.0396 0003218 336.7405 208.8513  1.86231786 27284
BEIDOU-3 M15 (C34)      
1 43647U 18078A   22266.30664765 -.00000086  00000+0  10000-3 0  9991
2 43647  55.0861 347.2405 0005159   0.4654  48.8059  1.86233166 26788
BEIDOU-3 M16 (C35)      
1 43648U 18078B   22267.44205041 -.00000080  00000+0  00000+0 0  9995
2 43648  55.0824 347.2070 0003098  23.0823 335.0190  1.86232254 26813
BEIDOU-3 G1 (C59)       
1 43683U 18085A   22267.54423203 -.00000279  00000+0  00000+0 0  9995
2 43683   1.0012 150.9829 0004319  46.7437 141.6506  1.00271091 14405
COSMOS 2529 (757)       
1 43687U 18086A   22267.55280256  .00000031  00000+0  00000+0 0  9995
2 43687  64.3531 238.7709 0011767 264.3157 219.3090  2.13102108 30272
BEIDOU-3 M17 (C36)      
1 43706U 18093A   22266.52153039  .00000005  00000+0  00000+0 0  9990
2 43706  54.3352 228.6204 0010667 278.3315  81.5139  1.86231998 26166
BEIDOU-3 M18 (C37)      
1 43707U 18093B   22266.92757625  .00000006  00000+0  00000+0 0  9997
2 43707  54.3356 228.5967 0009355 298.5310  64.8568  1.86232218 26163
GPS BIII-1  (PRN 04)    
1 43873U 18109A   22267.14321225  .00000035  00000+0  00000+0 0  9999
2 43873  55.1044 145.9998 0020438 188.8469 353.0916  2.00554593 27753
BEIDOU-3 IGSO-1 (C38)   
1 44204U 19023A   22267.60538816 -.00000188  00000+0  00000+0 0  9991
2 44204  56.7071  51.9083 0023615 188.7688 100.3636  1.00279789 12703
BEIDOU-2 G8             
1 44231U 19027A   22267.54732380 -.00000247  00000+0  00000+0 0  9996
2 44231   1.0959  79.0668 0006158 117.6075 148.2761  1.00274122 12419
COSMOS 2534 (758)       
1 44299U 19030A   22267.23518777  .00000031  00000+0  00000+0 0  9992
2 44299  64.4252 238.6758 0014133 282.5376  91.9164  2.13101863 25919
BEIDOU-3 IGSO-2 (C39)   
1 44337U 19035A   22267.60423918 -.00000147  00000+0  00000+0 0  9992
2 44337  55.1284 170.8424 0025721 192.4150 337.4873  1.00274198 12047
GPS BIII-2  (PRN 18)    
1 44506U 19056A   22266.52550181 -.00000080  00000+0  00000+0 0  9992
2 44506  55.7221  25.1539 0028433 180.9668 175.0092  2.00558521 22732
BEIDOU-3 M23 (C45)      
1 44542U 19061A   22266.99473561  .00000007  00000+0  00000+0 0  9993
2 44542  54.5614 228.7656 0008877 332.5082  27.4101  1.86231507 20421
BEIDOU-3 M24 (C46)      
1 44543U 19061B   22267.12463858  .00000007  00000+0  00000+0 0  9998
2 44543  54.5599 228.7305 0006457 313.4102  45.0368  1.86231807 20411
BEIDOU-3 IGSO-3         
1 44709U 19073A   22267.46640199 -.00000135  00000+0  10000-3 0  9995
2 44709  57.1038 295.3559 0027590 182.2517 173.6637  1.00278931 10787
BEIDOU-3 M21            
1 44793U 19078A   22266.44787178 -.00000085  00000+0  10000-3 0  9993
2 44793  54.9348 347.2443 0005125  15.3861  82.3069  1.86232271 19275
BEIDOU-3 M22            
1 44794U 19078B   22264.78058468 -.00000096  00000+0  00000+0 0  9999
2 44794  54.9097 347.2921 0002880   6.6882 324.9979  1.86232768 19231
COSMOS 2544 (759)       
1 44850U 19088A   22267.50244213  .00000077  00000+0  16595+1 0  9996
2 44850  64.9733 119.3684 0010965 254.8873 310.0354  2.13102310 21681
BEIDOU-3 M19            
1 44864U 19090A   22267.51936373  .00000059  00000+0  00000+0 0  9993
2 44864  55.4707 108.2319 0015110 270.7371 291.5701  1.86231958 18877
BEIDOU-3 M20            
1 44865U 19090B   22266.23490171  .00000052  00000+0  00000+0 0  9996
2 44865  55.4724 108.3072 0013298 286.6678 224.3161  1.86231888 18826
BEIDOU-3 G2             
1 45344U 20017A   22267.17688340 -.00000144  00000+0  00000+0 0  9994
2 45344   2.0174 357.0300 0003944 157.3702 352.3401  1.00271893  9603
COSMOS 2545 (760)       
1 45358U 20018A   22266.26368862 -.00000074  00000+0  00000+0 0  9995
2 45358  64.9111 359.9167 0009424 235.9789 307.9688  2.13102672 19613
BEIDOU-3 G3             
1 45807U 20040A   22267.57714924 -.00000357  00000+0  00000+0 0  9992
2 45807   1.2264 306.4696 0008725 337.0186  38.1657  1.00276572  8430
GPS BIII-3  (PRN 23)    
1 45854U 20041A   22266.14099146  .00000025  00000+0  00000+0 0  9990
2 45854  55.5981  82.4353 0026543 177.5913 197.9685  2.00569860 16704
GALAXY 30 (WAAS/PRN 135)
1 46114U 20056C   22267.51125934  .00000036  00000+0  00000+0 0  9995
2 46114   0.0257 187.0256 0002396   3.5238 231.8261  1.00271118  7632
GPS BIII-4  (PRN 14)    
1 46826U 20078A   22267.20498559  .00000023  00000+0  00000+0 0  9997
2 46826  54.5075 266.0860 0023445 191.7548 209.1588  2.00565277 14197
GPS BIII-5  (PRN 11)    
1 48859U 21054A   22267.40774274 -.00000075  00000+0  00000+0 0  9991
2 48859  55.2306  27.0702 0007779 198.7680 173.5823  2.00567862  9446
